NORAD_CAT_ID,OBJECT_NAME,OBJECT_TYPE,EPOCH,MEAN_MOTION,ECCENTRICITY,INCLINATION,RA_OF_ASC_NODE,ARG_OF_PERICENTER,MEAN_ANOMALY,BSTAR,MEAN_MOTION_DOT,MEAN_MOTION_DDOT,TLE_LINE0,TLE_LINE1,TLE_LINE2,SEMIMAJOR_AXIS,PERIOD,APOGEE,PERIGEE,DECAYED
53265.0,STARLINK-4097,PAYLOAD,2023-11-10 00:04:28,15.0885249,0.000147,53.2182,53.0034,84.8859,275.2301,8.519e-05,1.069e-05,0.0,0 STARLINK-4097,1 53265U 22086Z   23314.00311003  .00001069  00000-0  85190-4 0  9993,2 53265  53.2182  53.0034 0001470  84.8859 275.2301 15.08852490 72464,6917.842,95.437,540.724,538.69,0.0
53265.0,STARLINK-4097,PAYLOAD,2023-11-10 14:22:56,15.0885608,0.0001421,53.2174,50.3264,90.1755,269.94,-1.7528e-05,-5.67e-06,0.0,0 STARLINK-4097,1 53265U 22086Z   23314.59926536 -.00000567  00000-0 -17528-4 0  9994,2 53265  53.2174  50.3264 0001421  90.1755 269.9400 15.08856080 72730,6917.831,95.437,540.679,538.713,0.0
53265.0,STARLINK-4097,PAYLOAD,2023-11-11 12:38:20,15.08847368,0.000138,53.2176,46.1639,99.4566,260.6582,9.6096e-06,-1.35e-06,0.0,0 STARLINK-4097,1 53265U 22086Z   23315.52662711 -.00000135  00000-0  96096-5 0  9998,2 53265  53.2176  46.1639 0001380  99.4566 260.6582 15.08847368 72690,6917.858,95.437,540.678,538.768,0.0
53265.0,STARLINK-4097,PAYLOAD,2023-11-11 15:49:06,15.08851346,0.0001454,53.2179,45.5679,99.8542,260.2614,8.1862e-05,1.015e-05,0.0,0 STARLINK-4097,1 53265U 22086Z   23315.65910471  .00001015  00000-0  81862-4 0  9992,2 53265  53.2179  45.5679 0001454  99.8542 260.2614 15.08851346 72895,6917.846,95.437,540.717,538.705,0.0
53265.0,STARLINK-4097,PAYLOAD,2023-11-12 10:53:44,15.08840158,0.0001538,53.2176,42.0011,93.3619,266.7549,0.00010846,1.439e-05,0.0,0 STARLINK-4097,1 53265U 22086Z   23316.45399202  .00001439  00000-0  10846-3 0  9997,2 53265  53.2176  42.0011 0001538  93.3619 266.7549 15.08840158 72832,6917.88,95.438,540.809,538.681,0.0
53265.0,STARLINK-4097,PAYLOAD,2023-11-12 12:29:07,15.08844064,0.0001492,53.2178,41.7032,94.4546,265.6616,0.00010402,1.368e-05,0.0,0 STARLINK-4097,1 53265U 22086Z   23316.52022999  .00001368  00000-0  10402-3 0  9990,2 53265  53.2178  41.7032 0001492  94.4546 265.6616 15.08844064 73028,6917.868,95.437,540.765,538.701,0.0
53265.0,STARLINK-4097,PAYLOAD,2023-11-13 12:19:54,15.08852971,0.0001462,53.2186,37.2459,91.0073,269.1086,0.00035304,5.337e-05,0.0,0 STARLINK-4097,1 53265U 22086Z   23317.51382696  .00005337  00000-0  35304-3 0  9991,2 53265  53.2186  37.2459 0001462  91.0073 269.1086 15.08852971 72996,6917.841,95.437,540.717,538.694,0.0
53265.0,STARLINK-4097,PAYLOAD,2023-11-14 12:10:41,15.08842682,0.0001287,53.2179,32.7816,83.5768,276.5371,0.00010349,1.36e-05,0.0,0 STARLINK-4097,1 53265U 22086Z   23318.50743043  .00001360  00000-0  10349-3 0  9992,2 53265  53.2179  32.7816 0001287  83.5768 276.5371 15.08842682 73142,6917.872,95.437,540.628,538.847,0.0
53265.0,STARLINK-4097,PAYLOAD,2023-11-14 21:43:00,15.0884182,0.0001246,53.2175,30.998,80.887,279.2263,8.4538e-05,1.058e-05,0.0,0 STARLINK-4097,1 53265U 22086Z   23318.90487057  .00001058  00000-0  84538-4 0  9992,2 53265  53.2175  30.9980 0001246  80.8870 279.2263 15.08841820 73388,6917.875,95.437,540.602,538.878,0.0
53265.0,STARLINK-4097,PAYLOAD,2023-11-15 10:26:06,15.08837992,0.0001462,53.2184,28.6235,102.1883,257.9273,-6.8513e-06,-3.97e-06,0.0,0 STARLINK-4097,1 53265U 22086Z   23319.43479429 -.00000397  00000-0 -68513-5 0  9998,2 53265  53.2184  28.6235 0001462 102.1883 257.9273 15.08837992 73285,6917.887,95.438,540.763,538.74,0.0
53265.0,STARLINK-4097,PAYLOAD,2023-11-15 21:33:48,15.08836213,0.0001406,53.2184,26.5396,88.3985,271.7169,4.8622e-05,4.86e-06,0.0,0 STARLINK-4097,1 53265U 22086Z   23319.89847675  .00000486  00000-0  48622-4 0  9995,2 53265  53.2184  26.5396 0001406  88.3985 271.7169 15.08836213 73537,6917.892,95.438,540.73,538.784,0.0
53265.0,STARLINK-4097,PAYLOAD,2023-11-16 08:41:31,15.08824369,0.0001612,53.2186,24.459,105.3823,254.7348,0.00033953,5.117e-05,0.0,0 STARLINK-4097,1 53265U 22086Z   23320.36216450  .00005117  00000-0  33953-3 0  9996,2 53265  53.2186  24.4590 0001612 105.3823 254.7348 15.08824369 73429,6917.928,95.439,540.908,538.678,0.0
53265.0,STARLINK-4097,PAYLOAD,2023-11-16 13:27:39,15.0884003,0.0001676,53.2182,23.5645,84.2529,275.8654,7.6616e-05,9.32e-06,0.0,0 STARLINK-4097,1 53265U 22086Z   23320.56087809  .00000932  00000-0  76616-4 0  9996,2 53265  53.2182  23.5645 0001676  84.2529 275.8654 15.08840030 73634,6917.88,95.438,540.905,538.586,0.0
53265.0,STARLINK-4097,PAYLOAD,2023-11-17 13:18:26,15.08846059,0.0001623,53.2178,19.1012,83.389,276.7286,0.00020241,2.935e-05,0.0,0 STARLINK-4097,1 53265U 22086Z   23321.55447646  .00002935  00000-0  20241-3 0  9992,2 53265  53.2178  19.1012 0001623  83.3890 276.7286 15.08846059 73785,6917.862,95.437,540.85,538.604,0.0
53265.0,STARLINK-4097,PAYLOAD,2023-11-17 21:15:22,15.08840595,0.000153,53.2184,17.6144,101.3449,258.7715,3.8299e-05,3.22e-06,0.0,0 STARLINK-4097,1 53265U 22086Z   23321.88567874  .00000322  00000-0  38299-4 0  9995,2 53265  53.2184  17.6144 0001530 101.3449 258.7715 15.08840595 73831,6917.879,95.438,540.802,538.685,0.0
53265.0,STARLINK-4097,PAYLOAD,2023-11-18 03:36:55,15.0883924,0.0001925,53.2182,16.4286,82.6121,277.509,9.1126e-05,1.162e-05,0.0,0 STARLINK-4097,1 53265U 22086Z   23322.15064203  .00001162  00000-0  91126-4 0  9995,2 53265  53.2182  16.4286 0001925  82.6121 277.5090 15.08839240 73693,6917.883,95.438,541.079,538.416,0.0
53265.0,STARLINK-4097,PAYLOAD,2023-11-18 09:58:27,15.08842218,0.0001578,53.2169,15.2393,83.2616,276.8556,7.9235e-05,9.73e-06,0.0,0 STARLINK-4097,1 53265U 22086Z   23322.41559997  .00000973  00000-0  79235-4 0  9999,2 53265  53.2169  15.2393 0001578  83.2616 276.8556 15.08842218 73917,6917.874,95.437,540.83,538.647,0.0
53265.0,STARLINK-4097,PAYLOAD,2023-11-19 09:49:14,15.08849668,0.0001499,53.2169,10.7782,87.1982,272.9182,0.00014002,1.942e-05,0.0,0 STARLINK-4097,1 53265U 22086Z   23323.40919539  .00001942  00000-0  14002-3 0  9998,2 53265  53.2169  10.7782 0001499  87.1982 272.9182 15.08849668 73884,6917.851,95.437,540.753,538.679,0.0
53265.0,STARLINK-4097,PAYLOAD,2023-11-19 13:00:00,15.08851501,0.0001519,53.2164,10.1828,89.2733,270.8433,0.00016281,2.305e-05,0.0,0 STARLINK-4097,1 53265U 22086Z   23323.54167389  .00002305  00000-0  16281-3 0  9996,2 53265  53.2164  10.1828 0001519  89.2733 270.8433 15.08851501 74082,6917.845,95.437,540.761,538.659,0.0
53265.0,STARLINK-4097,PAYLOAD,2023-11-20 03:18:29,15.08841172,0.0001631,53.2149,7.5057,90.6505,269.4674,8.9204e-05,1.132e-05,0.0,0 STARLINK-4097,1 53265U 22086Z   23324.13783791  .00001132  00000-0  89204-4 0  9996,2 53265  53.2149   7.5057 0001631  90.6505 269.4674 15.08841172 73990,6917.877,95.437,540.87,538.614,0.0
53265.0,STARLINK-4097,PAYLOAD,2023-11-20 11:15:24,15.08846746,0.0001571,53.2178,6.0203,93.2078,266.9094,0.00012087,1.637e-05,0.0,0 STARLINK-4097,1 53265U 22086Z   23324.46903400  .00001637  00000-0  12087-3 0  9997,2 53265  53.2178   6.0203 0001571  93.2078 266.9094 15.08846746 74223,6917.86,95.437,540.812,538.638,0.0
53265.0,STARLINK-4097,PAYLOAD,2023-11-21 09:30:48,15.08844412,0.0001532,53.2175,1.857,92.7709,267.3459,3.8762e-05,3.29e-06,0.0,0 STARLINK-4097,1 53265U 22086Z   23325.39639551  .00000329  00000-0  38762-4 0  9999,2 53265  53.2175   1.8570 0001532  92.7709 267.3459 15.08844412 74185,6917.867,95.437,540.792,538.672,0.0
53265.0,STARLINK-4097,PAYLOAD,2023-11-21 11:06:11,15.08846311,0.0001541,53.2176,1.5595,93.0117,267.1052,5.4182e-05,5.75e-06,0.0,0 STARLINK-4097,1 53265U 22086Z   23325.46263412  .00000575  00000-0  54182-4 0  9993,2 53265  53.2176   1.5595 0001541  93.0117 267.1052 15.08846311 74375,6917.861,95.437,540.792,538.66,0.0
53265.0,STARLINK-4097,PAYLOAD,2023-11-22 03:00:03,15.08817085,0.0001609,53.2175,358.5857,99.873,260.2443,0.00037908,5.746e-05,0.0,0 STARLINK-4097,1 53265U 22086Z   23326.12504368  .00005746  00000-0  37908-3 0  9996,2 53265  53.2175 358.5857 0001609  99.8730 260.2443 15.08817085 74295,6917.95,95.439,540.929,538.702,0.0
53265.0,STARLINK-4097,PAYLOAD,2023-11-22 07:46:12,15.08822964,0.0001727,53.2179,357.6934,103.9721,256.1463,0.00039161,5.947e-05,0.0,0 STARLINK-4097,1 53265U 22086Z   23326.32376153  .00005947  00000-0  39161-3 0  9993,2 53265  53.2179 357.6934 0001727 103.9721 256.1463 15.08822964 74505,6917.932,95.439,540.992,538.603,0.0
53265.0,STARLINK-4097,PAYLOAD,2023-11-23 09:12:22,15.08844737,0.0001626,53.2178,352.9353,90.6606,269.4573,0.0001132,1.514e-05,0.0,0 STARLINK-4097,1 53265U 22086Z   23327.38359430  .00001514  00000-0  11320-3 0  9992,2 53265  53.2178 352.9353 0001626  90.6606 269.4573 15.08844737 74487,6917.866,95.437,540.856,538.606,0.0
53265.0,STARLINK-4097,PAYLOAD,2023-11-23 12:23:08,15.08844659,0.0001682,53.2177,352.3395,92.6619,267.4565,0.00026188,3.883e-05,0.0,0 STARLINK-4097,1 53265U 22086Z   23327.51607422  .00003883  00000-0  26188-3 0  9993,2 53265  53.2177 352.3395 0001682  92.6619 267.4565 15.08844659 74688,6917.866,95.437,540.895,538.568,0.0
53265.0,STARLINK-4097,PAYLOAD,2023-11-24 10:38:34,15.08831887,0.0001663,53.2183,348.1688,89.589,270.5292,-2.8942e-05,-7.49e-06,0.0,0 STARLINK-4097,1 53265U 22086Z   23328.44345088 -.00000749  00000-0 -28942-4 0  9994,2 53265  53.2183 348.1688 0001663  89.5890 270.5292 15.08831887 74645,6917.905,95.438,540.921,538.62,0.0
53265.0,STARLINK-4097,PAYLOAD,2023-11-25 08:53:57,15.08846551,0.0002077,53.2187,344.0144,71.1539,288.9678,0.00020547,2.984e-05,0.0,0 STARLINK-4097,1 53265U 22086Z   23329.37080384  .00002984  00000-0  20547-3 0  9995,2 53265  53.2187 344.0144 0002077  71.1539 288.9678 15.08846551 74968,6917.86,95.437,541.162,538.289,0.0
53265.0,STARLINK-4097,PAYLOAD,2023-11-26 10:20:06,15.08864284,0.0001633,53.2162,339.2511,94.1406,265.9773,0.00052814,8.133e-05,0.0,0 STARLINK-4097,1 53265U 22086Z   23330.43063459  .00008133  00000-0  52814-3 0  9992,2 53265  53.2162 339.2511 0001633  94.1406 265.9773 15.08864284 74942,6917.806,95.436,540.801,538.541,0.0
